KUIPER-00035            
1 63748U 25088AA  26027.04155327  .00008552  00000+0  11444-2 0  9990
2 63748  51.9016 298.2874 0004245 301.4222  58.6325 14.80118730 41345
KUIPER-00037            
1 63749U 25088AB  26027.04294185 -.00020672  00000+0 -26916-2 0  9996
2 63749  51.9014 297.2213 0000599 107.9433 252.1595 14.79922589 42143
KUIPER-00038            
1 63750U 25088AC  26026.72138458 -.00000922  00000+0 -91761-4 0  9990
2 63750  51.8976 283.6646 0002261 331.2371  28.8467 14.80012518 41308
KUIPER-00039            
1 64500U 25134A   26027.30200396  .00007330  00000+0  98922-3 0  9995
2 64500  51.9023  56.1024 0001948 198.4402 161.6490 14.79941541 33946
KUIPER-00040            
1 64501U 25134B   26027.28951188 -.00005172  00000+0 -64866-3 0  9999
2 64501  51.8997  67.3045 0015819 129.4986 230.7377 14.79884765 33784
KUIPER-00041            
1 64502U 25134C   26027.28825291  .00006832  00000+0  92176-3 0  9992
2 64502  51.8992  68.6601 0011225 129.5356 230.6600 14.80023173 33767
KUIPER-00042            
1 64503U 25134D   26027.29223743  .00000567  00000+0  10378-3 0  9991
2 64503  51.9008  64.6534 0011328 139.5304 220.6503 14.79895200 33820
KUIPER-00043            
1 64504U 25134E   26027.30037424  .00005681  00000+0  77371-3 0  9991
2 64504  51.9022  57.0725 0001928 160.9308 199.1727 14.79927917 33933
